PROBA-1                 
1 26958U 01049B   24360.09120752  .00005224  00000+0  37215-3 0  9998
2 26958  97.9360 340.8145 0060290 140.5940 219.9694 15.03584080262555
CUTE-1 (CO-55)          
1 27844U 03031E   24359.50606086  .00000937  00000+0  42947-3 0  9993
2 27844  98.6778   3.9515 0008953 317.4818  42.5666 14.23718317114868
CUBESAT XI-IV (CO-57)   
1 27848U 03031J   24360.01124620  .00000791  00000+0  36989-3 0  9991
2 27848  98.6807   4.5766 0009089 333.8908  26.1810 14.23094655114729
GENESIS 1               
1 29252U 06029A   24360.03589857  .00057912  00000+0  81572-3 0  9996
2 29252  64.5081 234.8111 0033291 300.4554  59.3300 15.55630301 20152
GENESIS 2               
1 31789U 07028A   24359.91629060  .00055047  00000+0  90388-3 0  9992
2 31789  64.4841 282.6095 0009645 295.8990  64.1155 15.52037036966853
APRIZESAT 4             
1 35684U 09041D   24359.70733940  .00002385  00000+0  30033-3 0  9995
2 35684  98.2119  51.7055 0043221 268.4032  91.2229 14.82391309831397
APRIZESAT 3             
1 35686U 09041F   24359.87805600  .00004148  00000+0  38652-3 0  9992
2 35686  98.1333 119.9336 0066214  46.8274 313.8452 14.93181491835800
PROBA-2                 
1 36037U 09059B   24359.74775238  .00000929  00000+0  22926-3 0  9991
2 36037  98.2302 180.0615 0013907 142.7864 217.4300 14.54318749803103
APRIZESAT 5             
1 37792U 11044E   24359.71497076  .00003298  00000+0  44246-3 0  9996
2 37792  98.2346 267.9339 0053034 299.2532  60.3382 14.79125079718988
APRIZESAT 6             
1 37793U 11044F   24360.19249480  .00002479  00000+0  36707-3 0  9998
2 37793  98.2782 248.0929 0044715  10.0574 141.2922 14.75432069717770
PROBA-V                 
1 39159U 13021A   24360.14456220  .00000259  00000+0  13215-3 0  9993
2 39159  98.3125 356.0767 0003003 273.3847  86.6989 14.23402915604424
APRIZESAT 7             
1 39416U 13066A   24360.13857340  .00003389  00000+0  36126-3 0  9998
2 39416  97.6982 313.4987 0036975 194.8449 165.1687 14.89036234600965
APRIZESAT 8             
1 39425U 13066K   24359.85297956  .00003171  00000+0  36613-3 0  9996
2 39425  97.7551 306.8946 0046179 259.6992  99.9015 14.85555843599536
BUGSAT-1 (TITA)         
1 40014U 14033E   24359.90263414  .00010221  00000+0  65940-3 0  9994
2 40014  98.1008  51.4391 0032272 210.9286 149.0041 15.08065996574345
SAUDISAT 4              
1 40016U 14033G   24360.02502736  .00001820  00000+0  25392-3 0  9996
2 40016  97.6831 156.7570 0046708  29.6838 330.7009 14.78113899566403
APRIZESAT 9             
1 40018U 14033J   24359.94912647  .00002366  00000+0  36352-3 0  9997
2 40018  97.8274 138.3180 0068751 133.3971 227.2990 14.72877786564272
APRIZESAT 10            
1 40019U 14033K   24360.16940561  .00002362  00000+0  38581-3 0  9992
2 40019  97.8922 130.9038 0080168 194.3175 165.5759 14.69687758563227
TECHDEMOSAT-1 (TDS-1)   
1 40076U 14037H   24359.80229486  .00015353  00000+0  12142-2 0  9992
2 40076  98.3300 294.6943 0004290 272.4494  87.6236 15.00734741566962
TIANTUO 2               
1 40144U 14053B   24360.19395748  .00229794  22721-4  55422-3 0  9999
2 40144  97.0982  85.5567 0001699  32.2353 327.9027 15.96426705578048
TECHNOSAT               
1 42829U 17042E   24360.02628098  .00008349  00000+0  68158-3 0  9993
2 42829  97.3858 170.8741 0013724 142.3990 217.8197 14.99581221405747
FLYING LAPTOP           
1 42831U 17042G   24360.13581824  .00005733  00000+0  49942-3 0  9997
2 42831  97.3886 170.3717 0012621 150.1739 210.0205 14.97200354405683
HAWK-A                  
1 43765U 18099H   24359.88945648  .00009547  00000+0  64533-3 0  9995
2 43765  97.4737  51.3503 0008936 359.8326   0.2897 15.06731701331322
HAWK-B                  
1 43794U 18099AN  24359.89068390  .00009801  00000+0  66300-3 0  9995
2 43794  97.4737  51.3491 0008932   1.9853 358.1409 15.06696673331317
HAWK-C                  
1 43799U 18099AT  24360.08986113  .00009639  00000+0  65206-3 0  9998
2 43799  97.4737  51.4389 0008880   0.5586 359.5650 15.06701540331345
SALSAT                  
1 46495U 20068K   24359.88595501  .00014074  00000+0  68470-3 0  9991
2 46495  97.8414 324.9471 0013772  27.1099 333.0850 15.18437057233192
HAWK-2C                 
1 47502U 21006CT  24359.77914187  .00012011  00000+0  47372-3 0  9994
2 47502  97.3075  44.7271 0007978 337.7728  22.3163 15.25677630217014
HAWK-2A                 
1 47505U 21006CW  24359.77929458  .00011932  00000+0  47065-3 0  9994
2 47505  97.3121  45.0883 0007560 341.0949  19.0008 15.25680301217012
HAWK-2B                 
1 47508U 21006CZ  24359.84507892  .00012679  00000+0  49985-3 0  9991
2 47508  97.2991  44.4033 0008321 340.7311  19.3612 15.25676728217027
HAWK-3B                 
1 48931U 21059BE  24359.89906888  .00024831  00000+0  68041-3 0  9990
2 48931  97.6465 150.3136 0010636 124.9384 235.2860 15.37244100194243
HAWK-3C                 
1 48948U 21059BX  24359.70361808  .00022989  00000+0  63020-3 0  9999
2 48948  97.6714 154.3423 0011424 129.0011 231.2251 15.37238656194216
HAWK-3A                 
1 48957U 21059CG  24359.89876225  .00023677  00000+0  64872-3 0  9994
2 48957  97.6591 152.4390 0011428 122.5667 237.6682 15.37248885194246
HAWK-4B                 
1 52165U 22033J   24359.79819451  .00050408  00000+0  76702-3 0  9997
2 52165  97.3101  84.2512 0004199 333.8206  26.2835 15.54367943152755
HAWK-4A                 
1 52167U 22033L   24359.79803047  .00050585  00000+0  76969-3 0  9994
2 52167  97.3042  83.5857 0003697 333.0603  27.0458 15.54370443152759
HAWK-4C                 
1 52170U 22033P   24359.79785679  .00051089  00000+0  77706-3 0  9998
2 52170  97.3099  84.2228 0005205 317.6316  42.4535 15.54370992152757
HAWK-5C                 
1 52754U 22057Y   24359.85024813  .00019640  00000+0  66437-3 0  9991
2 52754  97.5959 125.1645 0006993 195.0595 165.0438 15.30637623143308
HAWK-5B                 
1 52756U 22057AA  24359.85007617  .00019268  00000+0  65171-3 0  9996
2 52756  97.5948 123.5966 0007513 190.6348 169.4735 15.30642060143301
HAWK-5A                 
1 52757U 22057AB  24359.84985394  .00019876  00000+0  67211-3 0  9995
2 52757  97.5953 124.3756 0007885 192.6255 167.4789 15.30639443143303
HAWK-6B                 
1 55324U 23011A   24359.88231490  .00009953  00000+0  52802-3 0  9999
2 55324  40.5147 240.1151 0001891 315.9037  44.1619 15.15235194105796
HAWK-6C                 
1 55326U 23011C   24359.94775493  .00009820  00000+0  52111-3 0  9990
2 55326  40.4837 237.7940 0001970 343.5744  16.4998 15.15234940105814
HAWK-6A                 
1 55327U 23011D   24359.94772106  .00009770  00000+0  51847-3 0  9998
2 55327  40.4995 238.7977 0002721 335.5840  24.4837 15.15237342105814
HAWK-7A                 
1 56191U 23054P   24359.66211111  .00012429  00000+0  52068-3 0  9999
2 56191  97.3478 246.9713 0007150 175.8626 184.2672 15.23649254 94679
HAWK-7B                 
1 56193U 23054R   24359.66203249  .00012114  00000+0  50747-3 0  9997
2 56193  97.3378 245.4518 0007701 189.6203 170.4888 15.23651811 94671
HAWK-7C                 
1 56200U 23054Y   24359.66191622  .00012183  00000+0  51041-3 0  9991
2 56200  97.3383 246.2520 0006865 186.4269 173.6882 15.23652050 94670
